{
    "links": {
        "self": "http://www.neowsapp.com/rest/v1/neo/3801964?api_key=iIulBulltgU6a56xZRHN4H3l9WmuAYTsLGpBGhQ2"
    },
    "id": "3801964",
    "neo_reference_id": "3801964",
    "name": "(2018 FW)",
    "designation": "2018 FW",
    "nasa_jpl_url": "http://ssd.jpl.nasa.gov/sbdb.cgi?sstr=3801964",
    "absolute_magnitude_h": 25.0,
    "estimated_diameter": {
        "kilometers": {
            "estimated_diameter_min": 0.02658,
            "estimated_diameter_max": 0.0594346868
        },
        "meters": {
            "estimated_diameter_min": 26.58,
            "estimated_diameter_max": 59.4346868419
        },
        "miles": {
            "estimated_diameter_min": 0.0165160412,
            "estimated_diameter_max": 0.0369309908
        },
        "feet": {
            "estimated_diameter_min": 87.2047272,
            "estimated_diameter_max": 194.9956979785
        }
    },
    "is_potentially_hazardous_asteroid": false,
    "close_approach_data": [
        {
            "close_approach_date": "1959-12-03",
            "close_approach_date_full": "1959-Dec-03 16:05",
            "epoch_date_close_approach": -318066900000,
            "relative_velocity": {
                "kilometers_per_second": "14.359626137",
                "kilometers_per_hour": "51694.65409306",
                "miles_per_hour": "32121.0477057683"
            },
            "miss_distance": {
                "astronomical": "0.0730717272",
                "lunar": "28.4249018808",
                "kilometers": "10931374.746341064",
                "miles": "6792441.2976881232"
            },
            "orbiting_body": "Mars"
        },
        {
            "close_approach_date": "2015-04-19",
            "close_approach_date_full": "2015-Apr-19 11:32",
            "epoch_date_close_approach": 1429443120000,
            "relative_velocity": {
                "kilometers_per_second": "22.3039014771",
                "kilometers_per_hour": "80294.0453175938",
                "miles_per_hour": "49891.597214146"
            },
            "miss_distance": {
                "astronomical": "0.4395237698",
                "lunar": "170.9747464522",
                "kilometers": "65751819.776450326",
                "miles": "40856286.2779174588"
            },
            "orbiting_body": "Earth"
        },
        {
            "close_approach_date": "2018-03-12",
            "close_approach_date_full": "2018-Mar-12 07:31",
            "epoch_date_close_approach": 1520839860000,
            "relative_velocity": {
                "kilometers_per_second": "8.9243387748",
                "kilometers_per_hour": "32127.6195892089",
                "miles_per_hour": "19962.8534053059"
            },
            "miss_distance": {
                "astronomical": "0.0167368971",
                "lunar": "6.5106529719",
                "kilometers": "2503804.156569177",
                "miles": "1555791.7598695626"
            },
            "orbiting_body": "Earth"
        },
        {
            "close_approach_date": "2020-12-20",
            "close_approach_date_full": "2020-Dec-20 08:30",
            "epoch_date_close_approach": 1608453000000,
            "relative_velocity": {
                "kilometers_per_second": "15.1853554604",
                "kilometers_per_hour": "54667.2796575599",
                "miles_per_hour": "33968.1216294432"
            },
            "miss_distance": {
                "astronomical": "0.2061653731",
                "lunar": "80.1983301359",
                "kilometers": "30841900.683515297",
                "miles": "19164268.4258012186"
            },
            "orbiting_body": "Earth"
        }
    ],
    "orbital_data": {
        "orbit_id": "8",
        "orbit_determination_date": "2018-04-05 06:33:41",
        "first_observation_date": "2018-03-16",
        "last_observation_date": "2018-04-05",
        "data_arc_in_days": 20,
        "observations_used": 78,
        "orbit_uncertainty": "7",
        "minimum_orbit_intersection": ".0161678",
        "jupiter_tisserand_invariant": "3.598",
        "epoch_osculation": "2459000.5",
        "eccentricity": ".5376692909854789",
        "semi_major_axis": "2.048159108566396",
        "inclination": "2.383510039003146",
        "ascending_node_longitude": "13.71475414757362",
        "orbital_period": "1070.641229509113",
        "perihelion_distance": ".9469268528380516",
        "perihelion_argument": "126.4081855675199",
        "aphelion_distance": "3.149391364294742",
        "perihelion_time": "2459236.121852151725",
        "mean_anomaly": "280.7728374018319",
        "mean_motion": ".3362470920021073",
        "equinox": "J2000",
        "orbit_class": {
            "orbit_class_type": "APO",
            "orbit_class_description": "Near-Earth asteroid orbits which cross the Earth’s orbit similar to that of 1862 Apollo",
            "orbit_class_range": "a (semi-major axis) > 1.0 AU; q (perihelion) < 1.017 AU"
        }
    },
    "is_sentry_object": false
}